FLOCK 2K-36             
1 42876U 17042BD  17334.62951119  .00006019  00000-0  17945-3 0  9998
2 42876  96.9952 236.3210 0014774  98.0322 262.2600 15.34899055 21160
FLOCK 2K-35             
1 42877U 17042BE  17334.50055013  .00011725  00000-0  34662-3 0  9999
2 42877  96.9949 236.1938 0014589  98.0678 262.2222 15.34962435 21141
FLOCK 2K-34             
1 42878U 17042BF  17334.62804370  .00003183  00000-0  95969-4 0  9998
2 42878  96.9949 236.3166 0014682  98.2619 262.0291 15.34893781 21161
FLOCK 2K-33             
1 42879U 17042BG  17334.62508322  .00003164  00000-0  95374-4 0  9996
2 42879  96.9946 236.3207 0014763  98.0525 262.2395 15.34897665 21161
FLOCK 2K-28             
1 42880U 17042BH  17334.33895304  .00002481  00000-0  77849-4 0  9993
2 42880  96.9951 235.9686 0014943  99.3626 260.9308 15.33815772 21113
LEMUR-2-ARTFISCHER      
1 42881U 17042BJ  17334.44811060  .00005351  00000-0  16213-3 0  9999
2 42881  96.9975 236.1614 0015445 100.0054 260.2933 15.34429411 21127
FLOCK 2K-27             
1 42882U 17042BK  17334.62376504  .00007709  00000-0  22953-3 0  9996
2 42882  96.9951 236.3278 0014862  98.3803 261.9127 15.34851409 21166
FLOCK 2K-26             
1 42883U 17042BL  17334.29489501  .00009737  00000-0  28940-3 0  9997
2 42883  96.9949 236.0188 0014758  97.8549 262.4371 15.34837243 21118
FLOCK 2K-25             
1 42884U 17042BM  17334.62668183  .00002868  00000-0  86710-4 0  9998
2 42884  96.9947 236.3164 0014678  97.8735 262.4176 15.34878725 21160
FLOCK 2K-20             
1 42885U 17042BN  17334.68466490  .00002559  00000-0  77737-4 0  9998
2 42885  96.9948 236.3946 0014823  96.5047 263.7886 15.34829493 21175
FLOCK 2K-19             
1 42886U 17042BP  17334.62247243  .00002794  00000-0  84682-4 0  9994
2 42886  96.9952 236.3304 0014802  97.2569 263.0359 15.34824996 21163
FLOCK 2K-18             
1 42887U 17042BQ  17334.54536527  .00002848  00000-0  86236-4 0  9999
2 42887  96.9947 236.2792 0015174  96.6057 263.6915 15.34836865 21157
FLOCK 2K-17             
1 42888U 17042BR  17334.41942231  .00002848  00000-0  86275-4 0  9992
2 42888  96.9942 236.1433 0015049  96.2238 264.0721 15.34818653 21135
FLOCK 2K-16             
1 42889U 17042BS  17334.61633820  .00002957  00000-0  89344-4 0  9997
2 42889  96.9947 236.3371 0014707  95.5325 264.7597 15.34880868 21161
FLOCK 2K-15             
1 42890U 17042BT  17334.67423493  .00002740  00000-0  82976-4 0  9992
2 42890  96.9953 236.4138 0015081  95.9485 264.3478 15.34857212 21171
FLOCK 2K-13             
1 42891U 17042BU  17334.61779499  .00006382  00000-0  19016-3 0  9997
2 42891  96.9947 236.3325 0015087  93.7665 266.5304 15.34887847 21162
FLOCK 2K-14             
1 42892U 17042BV  17334.67708397  .00002675  00000-0  81013-4 0  9991
2 42892  96.9944 236.3953 0015131  94.9426 265.3546 15.34873346 21170
FLOCK 2K-12             
1 42893U 17042BW  17334.34534056  .00003064  00000-0  92572-4 0  9990
2 42893  96.9952 236.1033 0015108  97.2178 263.0784 15.34845769 21123
FLOCK 2K-11             
1 42894U 17042BX  17334.41790647  .00002762  00000-0  83616-4 0  9992
2 42894  96.9947 236.1559 0015126  93.5579 266.7396 15.34858795 21138
FLOCK 2K-10             
1 42895U 17042BY  17334.54224605  .00003151  00000-0  95025-4 0  9993
2 42895  96.9946 236.2783 0015207  95.0343 265.2637 15.34884910 21156
FLOCK 2K-09             
1 42896U 17042BZ  17334.34378798  .00002868  00000-0  86809-4 0  9999
2 42896  96.9951 236.1034 0014971  95.1421 265.1532 15.34835865 21299
FLOCK 2K-06             
1 42897U 17042CA  17334.51259172  .00003650  00000-0  10976-3 0  9994
2 42897  96.9948 236.1787 0013134 106.4164 253.8525 15.34900415 21145
SILU-1 (SILKROAD 1)     
1 42903U 17021F   17334.80757828  .00019652  00000-0  20730-3 0  9990
2 42903  42.7804  82.4464 0009013 341.5827 158.4320 15.63799752 18798
FLOCK 3M-1              
1 42995U 17068J   17334.86964625  .00001136  00000-0  58841-4 0  9996
2 42995  97.3434  88.1823 0019252 118.9158 241.4010 15.18025564  4545
FLOCK 3M-3              
1 42996U 17068K   17334.86649036  .00001146  00000-0  59080-4 0  9990
2 42996  97.3390  88.1673 0018601 119.5207 240.7885 15.18185854  4540
FLOCK 3M-4              
1 42997U 17068L   17334.86494646  .00001052  00000-0  54381-4 0  9991
2 42997  97.3601  88.2622 0018349 120.5447 239.7601 15.18260498  4540
FLOCK 3M-2              
1 42998U 17068M   17334.85905731  .00001265  00000-0  64244-4 0  9998
2 42998  97.3502  88.2257 0016627 116.4741 243.8201 15.18565873  4540
ECAMSAT                 
1 43019U 98067NG  17334.24964614  .00006730  00000-0  10580-3 0  9994
2 43019  51.6401 290.4300 0005649 144.7719 215.3646 15.54910613 87570
ASTERIA                 
1 43020U 98067NH  17334.44250282  .00015429  00000-0  23238-3 0  9996
2 43020  51.6401 289.4683 0003009 133.7255 226.3985 15.54999458  1528
DELLINGR (RBLE)         
1 43021U 98067NJ  17334.18589719  .00006965  00000-0  10942-3 0  9991
2 43021  51.6402 290.7546 0002828 132.0111 228.1121 15.54866307  1487
TECHEDSAT 6             
1 43026U 98067NK  17334.82382876  .00068200  00000-0  95407-3 0  9991
2 43026  51.6399 287.5163 0002830 120.2845 239.8427 15.56178034  1485
OSIRIS-3U               
1 43027U 98067NL  17334.24784402  .00020089  00000-0  29562-3 0  9991
2 43027  51.6404 290.4182 0004648 114.6008 245.5468 15.55421177  1379
